[{"OBJECT_NAME":"PROPCUBE 1 (FLORA)","OBJECT_ID":"2015-058N","EPOCH":"2026-03-09T22:10:52.593312","MEAN_MOTION":14.88641208,"ECCENTRICITY":0.01301152,"INCLINATION":64.774,"RA_OF_ASC_NODE":242.7389,"ARG_OF_PERICENTER":100.0601,"MEAN_ANOMALY":261.522,"EPHEMERIS_TYPE":0,"CLASSIFICATION_TYPE":"U","NORAD_CAT_ID":40976,"ELEMENT_SET_NO":999,"REV_AT_EPOCH":10148,"BSTAR":0.00044491072,"MEAN_MOTION_DOT":4.703e-5,"MEAN_MOTION_DDOT":0},{"OBJECT_NAME":"OBJECT M","OBJECT_ID":"2019-093M","EPOCH":"2026-03-09T22:23:03.457824","MEAN_MOTION":15.21921823,"ECCENTRICITY":0.00209816,"INCLINATION":97.7601,"RA_OF_ASC_NODE":172.1908,"ARG_OF_PERICENTER":299.2793,"MEAN_ANOMALY":60.6345,"EPHEMERIS_TYPE":0,"CLASSIFICATION_TYPE":"U","NORAD_CAT_ID":44890,"ELEMENT_SET_NO":999,"REV_AT_EPOCH":33917,"BSTAR":0.00037800273,"MEAN_MOTION_DOT":8.589e-5,"MEAN_MOTION_DDOT":0}]
